IRIDIUM 171             
1 43929U 19002H   24177.82461798  .00000120  00000+0  35669-4 0  9990
2 43929  86.3975 295.2573 0002360  90.3887 269.7579 14.34218101285562
IRIDIUM 170             
1 43930U 19002J   24177.82390630  .00001337  00000+0  20814-3 0  9994
2 43930  86.6094 295.0757 0002205  92.1015 268.0455 14.72257933293126
IRIDIUM 167             
1 43931U 19002K   24177.81827142  .00000385  00000+0  13057-3 0  9990
2 43931  86.3964 295.0493 0002240  94.4494 265.6958 14.34220498285566
IRIDIUM 181             
1 56726U 23068S   24177.91026424  .00000463  00000+0  13086-3 0  9997
2 56726  86.8639 349.1683 0002428  94.0433 266.1046 14.43569428 58397
IRIDIUM 177             
1 56727U 23068T   24177.74302076  .00001489  00000+0  19242-3 0  9998
2 56727  86.1977 311.2967 0002698  86.4698 273.6832 14.80235202 59644
IRIDIUM 174             
1 56728U 23068U   24177.80518985  .00001666  00000+0  21568-3 0  9995
2 56728  86.1981 311.3718 0002278  95.9942 264.1539 14.80235777 59653
IRIDIUM 178             
1 56729U 23068V   24177.46175429  .00001110  00000+0  14254-3 0  9998
2 56729  86.5784 329.3921 0001849  92.7887 267.3546 14.80246447 59604
IRIDIUM 179             
1 56730U 23068W   24177.92956859  .00001721  00000+0  22300-3 0  9994
2 56730  86.6793 333.4372 0002087  96.6653 263.4806 14.80248214 59679
